From:	Horizons Ephemeris System <horizons@ssd.jpl.nasa.gov>
Sent:	Friday, December 4, 2020 11:19 AM
Subject:	[Horizons] MAJOR BODY #C(usr={90.,40.,.600^G}@301)_T(301) (1/1)

 Automated mail xmit by MAIL_REQUEST, PID= 27734 Fri Dec  4 09:18:35 2020
++++++++++++++++++++++++++++++++ (part 1 of 1)  +++++++++++++++++++++++++++++++
*******************************************************************************
 Revised: July 31, 2013             Moon / (Earth)                          301
 
 GEOPHYSICAL DATA (updated 2018-Aug-15):
  Vol. mean radius, km  = 1737.53+-0.03    Mass, x10^22 kg       =    7.349
  Radius (gravity), km  = 1738.0           Surface emissivity    =    0.92
  Radius (IAU), km      = 1737.4           GM, km^3/s^2          = 4902.800066
  Density, g/cm^3       =    3.3437        GM 1-sigma, km^3/s^2  =  +-0.0001  
  V(1,0)                =   +0.21          Surface accel., m/s^2 =    1.62
  Earth/Moon mass ratio = 81.3005690769    Farside crust. thick. = ~80 - 90 km
  Mean crustal density  = 2.97+-.07 g/cm^3 Nearside crust. thick.= 58+-8 km 
  Heat flow, Apollo 15  = 3.1+-.6 mW/m^2   Mean angular diameter = 31'05.2"
  Heat flow, Apollo 17  = 2.2+-.5 mW/m^2   Sid. rot. rate, rad/s = 0.0000026617
  Geometric Albedo      = 0.12             Mean solar day        = 29.5306 d
  Obliquity to orbit    = 6.67 deg         Orbit period          = 27.321582 d
  Semi-major axis, a    = 384400 km        Eccentricity          = 0.05490
  Mean motion, rad/s    = 2.6616995x10^-6  Inclination           = 5.145 deg
  Apsidal period        = 3231.50 d        Nodal period          = 6798.38 d
                                 Perihelion  Aphelion    Mean
  Solar Constant (W/m^2)         1414+-7     1323+-7     1368+-7
  Maximum Planetary IR (W/m^2)   1314        1226        1268
  Minimum Planetary IR (W/m^2)      5.2         5.2         5.2
********************************************************************************
 
 
*******************************************************************************
Ephemeris / MAIL_REQUEST Fri Dec  4 09:18:34 2020 Pasadena, USA  / Horizons
*******************************************************************************
Target body name: Moon (301)                      {source: DE431mx}
Center body name: Moon (301)                      {source: DE431mx}
Center-site name: (user defined site below)
*******************************************************************************
Start time      : A.D. 2020-Jan-01 00:00:00.0000 TDB
Stop  time      : A.D. 2039-Jan-01 00:00:00.0000 TDB
Step-size       : 10000 steps
*******************************************************************************
Center geodetic : 90.0000000,40.0000000,0.6000000 {E-lon(deg),Lat(deg),Alt(km)}
Center cylindric: 90.0000000,1331.38524,1117.1649 {E-lon(deg),Dxy(km),Dz(km)}
Center pole/equ : IAU_MOON                        {East-longitude positive}
Center radii    : 1737.4 x 1737.4 x 1737.4 km     {Equator, meridian, pole}    
Output units    : KM-S
Output type     : GEOMETRIC cartesian states
Output format   : 3 (position, velocity, LT, range, range-rate)
Reference frame : Ecliptic of J2000.0
*******************************************************************************
JDTDB
   X     Y     Z
   VX    VY    VZ
   LT    RG    RR
*******************************************************************************
$$SOE
2463729.708000002 = A.D. 2033-May-12 04:59:31.2002 TDB 
   6.233039323908504E+02 -1.141989893510687E+03 -1.152386780115753E+03
   3.116729445835619E-03  1.686015321394579E-03  1.497523465965344E-05
   5.797343974543883E-03  1.738000000000000E+03  1.936342660181246E-19
2463730.402000002 = A.D. 2033-May-12 21:38:52.8002 TDB 
   8.013446036789893E+02 -1.026447039985104E+03 -1.151041832541451E+03
   2.809146913658224E-03  2.159689860345052E-03  2.978819257053373E-05
   5.797343974543883E-03  1.738000000000000E+03 -5.230121412035942E-19
2463731.096000002 = A.D. 2033-May-13 14:18:14.4002 TDB 
   9.587572927926462E+02 -8.840918525975829E+02 -1.148829861070598E+03
   2.430153050592137E-03  2.578432133750158E-03  4.383252876650166E-05
   5.797343974543884E-03  1.738000000000000E+03 -4.152157456883496E-19
2463731.790000002 = A.D. 2033-May-14 06:57:36.0002 TDB 
   1.091540796516013E+03 -7.185450613727836E+02 -1.145807874086215E+03
   1.989395250037586E-03  2.931595595329825E-03  5.674820387894662E-05
   5.797343974543883E-03  1.738000000000000E+03  7.984918186314417E-21
2463732.484000002 = A.D. 2033-May-14 23:36:57.6002 TDB 
   1.196320799596776E+03 -5.340169205422731E+02 -1.142053620906951E+03
   1.498091104210553E-03  3.210205167748877E-03  6.820491458709387E-05
   5.797343974543884E-03  1.738000000000000E+03 -1.596983637262883E-19
2463733.178000002 = A.D. 2033-May-15 16:16:19.2002 TDB 
   1.270435613950189E+03 -3.351999202299064E+02 -1.137663554960284E+03
   9.687417486938525E-04  3.407185190666091E-03  7.791039253635611E-05
   5.797343974543884E-03  1.738000000000000E+03  7.186426367682975E-20
2463733.872000002 = A.D. 2033-May-16 08:55:40.8002 TDB 
   1.312003716486936E+03 -1.271492657321359E+02 -1.132750330897434E+03
   4.148127330466920E-04  3.517538624168181E-03  8.561762597686959E-05
   5.797343974543884E-03  1.738000000000000E+03 -1.277586909810306E-19
2463734.566000002 = A.D. 2033-May-17 01:35:02.4002 TDB 
   1.319971382459882E+03  8.484581192750403E+01 -1.127439904245593E+03
  -1.496093264364390E-04  3.538473032311901E-03  9.113087764410065E-05
   5.797343974543884E-03  1.738000000000000E+03  3.752911547567776E-19
2463735.260000002 = A.D. 2033-May-17 18:14:24.0002 TDB 
   1.294139224720611E+03  2.953966234035807E+02 -1.121868308635778E+03
  -7.101754778074933E-04  3.469470263520425E-03  9.431040859541381E-05
   5.797343974543884E-03  1.738000000000000E+03  2.076078728441748E-19
2463735.954000002 = A.D. 2033-May-18 10:53:45.6002 TDB 
   1.235166990464093E+03  4.991520341974208E+02 -1.116178190265539E+03
  -1.252639371488634E-03  3.312298199475163E-03  9.507584222980350E-05
   5.797343974543885E-03  1.738000000000000E+03 -7.186426367682974E-20
2463736.648000002 = A.D. 2033-May-19 03:33:07.2002 TDB 
   1.144556521645582E+03  6.909344380667260E+02 -1.110515182720157E+03
  -1.763219122177568E-03  3.070964423003253E-03  9.340811739110282E-05
   5.797343974543883E-03  1.738000000000000E+03 -2.395475455894325E-20
2463737.342000002 = A.D. 2033-May-19 20:12:28.8002 TDB 
   1.024613339252601E+03  8.658712402338530E+02 -1.105024208043210E+03
  -2.228946938298967E-03  2.751613121767849E-03  8.934998907973615E-05
   5.797343974543883E-03  1.738000000000000E+03 -3.593213183841488E-19
2463738.036000002 = A.D. 2033-May-20 12:51:50.4002 TDB 
   8.783878511525709E+02  1.019518521894032E+03 -1.099845792128413E+03
  -2.637997714464007E-03  2.362367963621266E-03  8.300504610820735E-05
   5.797343974543883E-03  1.738000000000000E+03 -2.714872183346902E-19
2463738.730000002 = A.D. 2033-May-21 05:31:12.0002 TDB 
   7.095976953615252E+02  1.147973762082531E+03 -1.095112483860765E+03
  -2.979988345668005E-03  1.913125019733405E-03  7.453523281881450E-05
   5.797343974543883E-03  1.738000000000000E+03 -7.186426367682975E-20
2463739.424000002 = A.D. 2033-May-21 22:10:33.6002 TDB 
   5.225332028123490E+02  1.247974775024497E+03 -1.090945467409450E+03
  -3.246240282311891E-03  1.415301042888274E-03  6.415689039135494E-05
   5.797343974543882E-03  1.738000000000000E+03  9.581901823577300E-20
2463740.118000002 = A.D. 2033-May-22 14:49:55.2002 TDB 
   3.219483850855540E+02  1.316982372825717E+03 -1.087451455011739E+03
  -3.429998782176852E-03  8.815435041674242E-04  5.213537288397421E-05
   5.797343974543883E-03  1.738000000000000E+03 -2.275701683099609E-19
2463740.812000002 = A.D. 2033-May-23 07:29:16.8002 TDB 
   1.129402128230371E+02  1.353244676281493E+03 -1.084719942862342E+03
  -3.526603407898375E-03  3.254097263397797E-04  3.877834147497757E-05
   5.797343974543885E-03  1.738000000000000E+03 -1.596983637262884E-20
2463741.506000002 = A.D. 2033-May-24 00:08:38.4002 TDB 
  -9.918075853008799E+01  1.355841460099086E+03 -1.082820904957867E+03
  -3.533605539739105E-03 -2.389767936908415E-04  2.442789270944664E-05
   5.797343974543883E-03  1.738000000000000E+03  5.789065685077953E-20
2463742.200000002 = A.D. 2033-May-24 16:48:00.0002 TDB 
  -3.090251446358538E+02  1.324707421762521E+03 -1.081802988861689E+03
  -3.450829995472296E-03 -7.972842262505759E-04  9.451727164297744E-06
   5.797343974543883E-03  1.738000000000000E+03 -1.117888546084018E-19
2463742.894000002 = A.D. 2033-May-25 09:27:21.6002 TDB 
  -5.112614658406411E+02  1.260633793116637E+03 -1.081692263630854E+03
  -3.280379240273582E-03 -1.335335423681108E-03 -5.766391747787569E-06
   5.797343974543885E-03  1.738000000000000E+03  1.472219290601720E-19
2463743.588000002 = A.D. 2033-May-26 02:06:43.2002 TDB 
  -7.007514061485590E+02  1.165248257644835E+03 -1.082491554164047E+03
  -3.026580096864873E-03 -1.839466994764313E-03 -2.083660778528010E-05
   5.797343974543883E-03  1.738000000000000E+03 -1.916380364715460E-19
2463744.282000002 = A.D. 2033-May-26 18:46:04.8002 TDB 
  -8.726801829049002E+02  1.040973681011866E+03 -1.084180378814188E+03
  -2.695874295474916E-03 -2.296875424629413E-03 -3.537307360279747E-05
   5.797343974543883E-03  1.738000000000000E+03 -5.270046002967515E-19
2463744.976000002 = A.D. 2033-May-27 11:25:26.4002 TDB 
  -1.022678734911548E+03  8.909666944470982E+02 -1.086715489236133E+03
  -2.296655600135745E-03 -2.695941546148299E-03 -4.900388799780175E-05
   5.797343974543883E-03  1.738000000000000E+03  1.996229546578604E-20
2463745.670000002 = A.D. 2033-May-28 04:04:48.0002 TDB 
  -1.146934641124010E+03  7.190376768774616E+02 -1.090031994126962E+03
  -1.839057578436509E-03 -3.026525202617369E-03 -6.138059004790961E-05
   5.797343974543883E-03  1.738000000000000E+03 -5.190196821104371E-19
